CCSDS_OMM_VERS = 2.0
CREATION_DATE  = 
ORIGINATOR     = 

OBJECT_NAME    = ATLAS CENTAUR 2
OBJECT_ID      = 1963-047A
CENTER_NAME    = EARTH
REF_FRAME      = TEME
TIME_SYSTEM    = UTC
MEAN_ELEMENT_THEORY = SGP/SGP4

EPOCH          = 2025-11-02T08:13:53.704416
MEAN_MOTION    = 14.11362081
ECCENTRICITY   = .0550226
INCLINATION    = 30.3524
RA_OF_ASC_NODE = 187.0379
ARG_OF_PERICENTER = 38.4295
MEAN_ANOMALY   = 325.4211

EPHEMERIS_TYPE = 0
CLASSIFICATION_TYPE = U
NORAD_CAT_ID   = 694
ELEMENT_SET_NO = 999
REV_AT_EPOCH   = 11361
BSTAR          = .45642E-3
MEAN_MOTION_DOT = .3776E-4
MEAN_MOTION_DDOT = 0

CCSDS_OMM_VERS = 2.0
CREATION_DATE  = 
ORIGINATOR     = 

OBJECT_NAME    = THOR AGENA D R/B
OBJECT_ID      = 1964-002A
CENTER_NAME    = EARTH
REF_FRAME      = TEME
TIME_SYSTEM    = UTC
MEAN_ELEMENT_THEORY = SGP/SGP4

EPOCH          = 2025-11-02T11:03:37.858176
MEAN_MOTION    = 14.33924367
ECCENTRICITY   = .0031915
INCLINATION    = 99.1225
RA_OF_ASC_NODE = 307.8996
ARG_OF_PERICENTER = 269.0189
MEAN_ANOMALY   = 90.7337

EPHEMERIS_TYPE = 0
CLASSIFICATION_TYPE = U
NORAD_CAT_ID   = 733
ELEMENT_SET_NO = 999
REV_AT_EPOCH   = 22006
BSTAR          = .15455E-3
MEAN_MOTION_DOT = .384E-5
MEAN_MOTION_DDOT = 0

CCSDS_OMM_VERS = 2.0
CREATION_DATE  = 
ORIGINATOR     = 

OBJECT_NAME    = SL-3 R/B
OBJECT_ID      = 1964-053B
CENTER_NAME    = EARTH
REF_FRAME      = TEME
TIME_SYSTEM    = UTC
MEAN_ELEMENT_THEORY = SGP/SGP4

EPOCH          = 2025-11-02T11:11:53.491776
MEAN_MOTION    = 14.61210746
ECCENTRICITY   = .0069992
INCLINATION    = 65.0778
RA_OF_ASC_NODE = 344.1799
ARG_OF_PERICENTER = 334.0870
MEAN_ANOMALY   = 25.6730

EPHEMERIS_TYPE = 0
CLASSIFICATION_TYPE = U
NORAD_CAT_ID   = 877
ELEMENT_SET_NO = 999
REV_AT_EPOCH   = 24820
BSTAR          = .10018E-3
MEAN_MOTION_DOT = .388E-5
MEAN_MOTION_DDOT = 0

CCSDS_OMM_VERS = 2.0
CREATION_DATE  = 
ORIGINATOR     = 

OBJECT_NAME    = SL-8 R/B
OBJECT_ID      = 1967-045B
CENTER_NAME    = EARTH
REF_FRAME      = TEME
TIME_SYSTEM    = UTC
MEAN_ELEMENT_THEORY = SGP/SGP4

EPOCH          = 2025-11-02T05:41:12.435072
MEAN_MOTION    = 14.45489325
ECCENTRICITY   = .0065644
INCLINATION    = 74.0112
RA_OF_ASC_NODE = 226.0874
ARG_OF_PERICENTER = 264.2409
MEAN_ANOMALY   = 95.1262

EPHEMERIS_TYPE = 0
CLASSIFICATION_TYPE = U
NORAD_CAT_ID   = 2802
ELEMENT_SET_NO = 999
REV_AT_EPOCH   = 7060
BSTAR          = .13205E-3
MEAN_MOTION_DOT = .449E-5
MEAN_MOTION_DDOT = 0

CCSDS_OMM_VERS = 2.0
CREATION_DATE  = 
ORIGINATOR     = 

OBJECT_NAME    = SL-8 R/B
OBJECT_ID      = 1968-040B
CENTER_NAME    = EARTH
REF_FRAME      = TEME
TIME_SYSTEM    = UTC
MEAN_ELEMENT_THEORY = SGP/SGP4

EPOCH          = 2025-11-02T05:15:38.825568
MEAN_MOTION    = 15.02121124
ECCENTRICITY   = .0023425
INCLINATION    = 74.0318
RA_OF_ASC_NODE = 213.9314
ARG_OF_PERICENTER = 67.7586
MEAN_ANOMALY   = 292.6083

EPHEMERIS_TYPE = 0
CLASSIFICATION_TYPE = U
NORAD_CAT_ID   = 3230
ELEMENT_SET_NO = 999
REV_AT_EPOCH   = 7086
BSTAR          = .31961E-3
MEAN_MOTION_DOT = .4187E-4
MEAN_MOTION_DDOT = 0

CCSDS_OMM_VERS = 2.0
CREATION_DATE  = 
ORIGINATOR     = 

OBJECT_NAME    = OAO 2
OBJECT_ID      = 1968-110A
CENTER_NAME    = EARTH
REF_FRAME      = TEME
TIME_SYSTEM    = UTC
MEAN_ELEMENT_THEORY = SGP/SGP4

EPOCH          = 2025-11-01T14:23:53.680704
MEAN_MOTION    = 14.47205297
ECCENTRICITY   = .00061965
INCLINATION    = 34.9935
RA_OF_ASC_NODE = 260.3252
ARG_OF_PERICENTER = 251.3582
MEAN_ANOMALY   = 108.6436

EPHEMERIS_TYPE = 0
CLASSIFICATION_TYPE = U
NORAD_CAT_ID   = 3597
ELEMENT_SET_NO = 999
REV_AT_EPOCH   = 53
BSTAR          = .98162664E-4
MEAN_MOTION_DOT = .345E-5
MEAN_MOTION_DDOT = 0

CCSDS_OMM_VERS = 2.0
CREATION_DATE  = 
ORIGINATOR     = 

OBJECT_NAME    = ISIS 1
OBJECT_ID      = 1969-009A
CENTER_NAME    = EARTH
REF_FRAME      = TEME
TIME_SYSTEM    = UTC
MEAN_ELEMENT_THEORY = SGP/SGP4

EPOCH          = 2025-11-01T13:13:50.879712
MEAN_MOTION    = 11.30331180
ECCENTRICITY   = .17079412
INCLINATION    = 88.4536
RA_OF_ASC_NODE = 169.2974
ARG_OF_PERICENTER = 347.9172
MEAN_ANOMALY   = 8.5299

EPHEMERIS_TYPE = 0
CLASSIFICATION_TYPE = U
NORAD_CAT_ID   = 3669
ELEMENT_SET_NO = 999
REV_AT_EPOCH   = 33405
BSTAR          = .15351071E-3
MEAN_MOTION_DOT = .22E-5
MEAN_MOTION_DDOT = 0

CCSDS_OMM_VERS = 2.0
CREATION_DATE  = 
ORIGINATOR     = 

OBJECT_NAME    = SERT 2
OBJECT_ID      = 1970-009A
CENTER_NAME    = EARTH
REF_FRAME      = TEME
TIME_SYSTEM    = UTC
MEAN_ELEMENT_THEORY = SGP/SGP4

EPOCH          = 2025-11-02T11:06:42.532992
MEAN_MOTION    = 13.58710462
ECCENTRICITY   = .0005458
INCLINATION    = 99.2578
RA_OF_ASC_NODE = 251.6235
ARG_OF_PERICENTER = 123.0006
MEAN_ANOMALY   = 343.8992

EPHEMERIS_TYPE = 0
CLASSIFICATION_TYPE = U
NORAD_CAT_ID   = 4327
ELEMENT_SET_NO = 999
REV_AT_EPOCH   = 76261
BSTAR          = .72076E-4
MEAN_MOTION_DOT = .12E-6
MEAN_MOTION_DDOT = 0

CCSDS_OMM_VERS = 2.0
CREATION_DATE  = 
ORIGINATOR     = 

OBJECT_NAME    = SL-3 R/B
OBJECT_ID      = 1971-028B
CENTER_NAME    = EARTH
REF_FRAME      = TEME
TIME_SYSTEM    = UTC
MEAN_ELEMENT_THEORY = SGP/SGP4

EPOCH          = 2025-11-02T11:17:22.835616
MEAN_MOTION    = 15.51592374
ECCENTRICITY   = .0023066
INCLINATION    = 81.2415
RA_OF_ASC_NODE = 207.9578
ARG_OF_PERICENTER = 26.4500
MEAN_ANOMALY   = 333.7920

EPHEMERIS_TYPE = 0
CLASSIFICATION_TYPE = U
NORAD_CAT_ID   = 5118
ELEMENT_SET_NO = 999
REV_AT_EPOCH   = 96888
BSTAR          = .49467E-3
MEAN_MOTION_DOT = .29749E-3
MEAN_MOTION_DDOT = 0

CCSDS_OMM_VERS = 2.0
CREATION_DATE  = 
ORIGINATOR     = 

OBJECT_NAME    = ASTEX 1
OBJECT_ID      = 1971-089A
CENTER_NAME    = EARTH
REF_FRAME      = TEME
TIME_SYSTEM    = UTC
MEAN_ELEMENT_THEORY = SGP/SGP4

EPOCH          = 2025-11-02T11:43:54.283008
MEAN_MOTION    = 14.50564077
ECCENTRICITY   = .001677
INCLINATION    = 92.7116
RA_OF_ASC_NODE = 110.6037
ARG_OF_PERICENTER = 147.4379
MEAN_ANOMALY   = 212.7865

EPHEMERIS_TYPE = 0
CLASSIFICATION_TYPE = U
NORAD_CAT_ID   = 5560
ELEMENT_SET_NO = 999
REV_AT_EPOCH   = 84386
BSTAR          = .19758E-3
MEAN_MOTION_DOT = .774E-5
MEAN_MOTION_DDOT = 0

CCSDS_OMM_VERS = 2.0
CREATION_DATE  = 
ORIGINATOR     = 

OBJECT_NAME    = SL-8 R/B
OBJECT_ID      = 1971-119B
CENTER_NAME    = EARTH
REF_FRAME      = TEME
TIME_SYSTEM    = UTC
MEAN_ELEMENT_THEORY = SGP/SGP4

EPOCH          = 2025-11-02T09:34:50.856672
MEAN_MOTION    = 14.34785051
ECCENTRICITY   = .0561369
INCLINATION    = 73.8885
RA_OF_ASC_NODE = 53.0961
ARG_OF_PERICENTER = 45.6133
MEAN_ANOMALY   = 318.9589

EPHEMERIS_TYPE = 0
CLASSIFICATION_TYPE = U
NORAD_CAT_ID   = 5730
ELEMENT_SET_NO = 999
REV_AT_EPOCH   = 63721
BSTAR          = .34532E-3
MEAN_MOTION_DOT = .6467E-4
MEAN_MOTION_DDOT = 0

CCSDS_OMM_VERS = 2.0
CREATION_DATE  = 
ORIGINATOR     = 

OBJECT_NAME    = OAO 3 (COPERNICUS)
OBJECT_ID      = 1972-065A
CENTER_NAME    = EARTH
REF_FRAME      = TEME
TIME_SYSTEM    = UTC
MEAN_ELEMENT_THEORY = SGP/SGP4

EPOCH          = 2025-11-02T07:36:47.159136
MEAN_MOTION    = 14.59851633
ECCENTRICITY   = .0006934
INCLINATION    = 35.0063
RA_OF_ASC_NODE = 302.9284
ARG_OF_PERICENTER = 203.1556
MEAN_ANOMALY   = 173.7631

EPHEMERIS_TYPE = 0
CLASSIFICATION_TYPE = U
NORAD_CAT_ID   = 6153
ELEMENT_SET_NO = 999
REV_AT_EPOCH   = 82757
BSTAR          = .1089E-3
MEAN_MOTION_DOT = .508E-5
MEAN_MOTION_DDOT = 0

