ATLAS CENTAUR 2         
1 00694U 63047A   25306.34298269  .00003776  00000+0  45642-3 0  9994
2 00694  30.3524 187.0379 0550226  38.4295 325.4211 14.11362081113611
THOR AGENA D R/B        
1 00733U 64002A   25306.46085484  .00000384  00000+0  15455-3 0  9997
2 00733  99.1225 307.8996 0031915 269.0189  90.7337 14.33924367220060
SL-3 R/B                
1 00877U 64053B   25306.46659134  .00000388  00000+0  10018-3 0  9995
2 00877  65.0778 344.1799 0069992 334.0870  25.6730 14.61210746248205
SL-8 R/B                
1 02802U 67045B   25306.23694948  .00000449  00000+0  13205-3 0  9995
2 02802  74.0112 226.0874 0065644 264.2409  95.1262 14.45489325 70603
SL-8 R/B                
1 03230U 68040B   25306.21919937  .00004187  00000+0  31961-3 0  9995
2 03230  74.0318 213.9314 0023425  67.7586 292.6083 15.02121124 70861
OAO 2                   
1 03597U 68110A   25305.59992686  .00000345  00000+0  98163-4 0  9991
2 03597  34.9935 260.3252 0006196 251.3582 108.6436 14.47205297   534
ISIS 1                  
1 03669U 69009A   25305.55128333  .00000220  00000+0  15351-3 0  9994
2 03669  88.4536 169.2974 1707941 347.9172   8.5299 11.30331180334059
SERT 2                  
1 04327U 70009A   25306.46299228  .00000012  00000+0  72076-4 0  9998
2 04327  99.2578 251.6235 0005458 123.0006 343.8992 13.58710462762613
SL-3 R/B                
1 05118U 71028B   25306.47040319  .00029749  00000+0  49467-3 0  9990
2 05118  81.2415 207.9578 0023066  26.4500 333.7920 15.51592374968888
ASTEX 1                 
1 05560U 71089A   25306.48882272  .00000774  00000+0  19758-3 0  9998
2 05560  92.7116 110.6037 0016770 147.4379 212.7865 14.50564077843867
SL-8 R/B                
1 05730U 71119B   25306.39919973  .00006467  00000+0  34532-3 0  9992
2 05730  73.8885  53.0961 0561369  45.6133 318.9589 14.34785051637212
OAO 3 (COPERNICUS)      
1 06153U 72065A   25306.31721249  .00000508  00000+0  10890-3 0  9993
2 06153  35.0063 302.9284 0006934 203.1556 173.7631 14.59851633827578
